[{"OBJECT_NAME":"LEMUR-2-GREENBERG","OBJECT_ID":"2017-042N","EPOCH":"2026-03-09T11:05:17.256192","MEAN_MOTION":15.27971352,"ECCENTRICITY":0.00091572,"INCLINATION":97.3781,"RA_OF_ASC_NODE":249.8007,"ARG_OF_PERICENTER":4.0119,"MEAN_ANOMALY":356.1192,"EPHEMERIS_TYPE":0,"CLASSIFICATION_TYPE":"U","NORAD_CAT_ID":42837,"ELEMENT_SET_NO":999,"REV_AT_EPOCH":47314,"BSTAR":0.00072539172,"MEAN_MOTION_DOT":0.00019778,"MEAN_MOTION_DDOT":0},{"OBJECT_NAME":"STARLINK-36447","OBJECT_ID":"2026-005X","EPOCH":"2026-03-09T12:50:28.129920","MEAN_MOTION":15.27590263,"ECCENTRICITY":0.0002124,"INCLINATION":43.0012,"RA_OF_ASC_NODE":238.7868,"ARG_OF_PERICENTER":286.3221,"MEAN_ANOMALY":73.7398,"EPHEMERIS_TYPE":0,"CLASSIFICATION_TYPE":"U","NORAD_CAT_ID":67425,"ELEMENT_SET_NO":999,"REV_AT_EPOCH":867,"BSTAR":0.0010776967,"MEAN_MOTION_DOT":0.00029523,"MEAN_MOTION_DDOT":0}]
