LEMUR-2-GREENBERG       
1 42837U 17042N   26068.46200528  .00019778  00000+0  72539-3 0  9997
2 42837  97.3781 249.8007 0009157   4.0119 356.1192 15.27971352473146
STARLINK-36447          
1 67425U 26005X   26068.53504780  .00029523  00000+0  10777-2 0  9995
2 67425  43.0012 238.7868 0002124 286.3221  73.7398 15.27590263  8679
